CAPELLA-11 (ACADIA-1)   
1 57693U 23126A   26190.12983646  .00002793  00000+0  35355-3 0  9995
2 57693  53.0059  89.6526 0001785 116.5420 243.5742 14.84716558155388
CAPELLA-14 (ACADIA-4)   
1 59444U 24066C   26189.28316113  .00007500  00000+0  47361-3 0  9990
2 59444  45.6018 144.1293 0001794 172.8310 187.2601 15.09670244115672
CAPELLA-13 (ACADIA-3)   
1 60419U 24142A   26189.86620369  .00003070  00000+0  35962-3 0  9996
2 60419  53.0055 322.9385 0001232  90.0185 270.0937 14.87666772103638
CAPELLA-15 (ACADIA-5)   
1 60544U 24149CE  26189.77779346  .00002013  00000+0  20207-3 0  9994
2 60544  97.6776 262.1397 0003386   8.7995 351.3283 14.92382217103076
CAPELLA-17 (ACADIA-7)   
1 64583U 25135BH  26189.87371592  .00004158  00000+0  41998-3 0  9991
2 64583  97.7700 303.1751 0003740 277.9877  82.0917 14.91577145 57080
CAPELLA-16 (ACADIA-6)   
1 65318U 25188D   26189.92553983  .00003312  00000+0  31588-3 0  9993
2 65318  97.7375 264.7514 0005200 152.8898 207.2595 14.94003832 47162
CAPELLA-19 (ACADIA-9)   
1 67384U 26004X   26189.93905304  .00003529  00000+0  40349-3 0  9990
2 67384  97.8006 187.9199 0001513  95.8496 264.2892 14.86647536 26501
CAPELLA-18 (ACADIA-8)   
1 67385U 26004Y   26189.94908606  .00000911  00000+0  10861-3 0  9998
2 67385  97.8019 188.0825 0001326  84.8607 275.2760 14.86647213 26517
CAPELLA-20 (ACADIA-10)  
1 68485U 26067BX  26189.89298105  .00004360  00000+0  43769-3 0  9994
2 68485  97.7579 147.8414 0001190 153.1850 206.9430 14.91798857 14963
