{"fetched_at":"2026-07-10T07:58:53.703Z","source":"https://celestrak.org/NORAD/elements/gp.php?NAME=CAPELLA&FORMAT=JSON","constellation":"capella","records":[{"OBJECT_NAME":"CAPELLA-11 (ACADIA-1)","OBJECT_ID":"2023-126A","EPOCH":"2026-07-09T03:06:57.870144","CLASSIFICATION_TYPE":"U","MEAN_MOTION":14.84716558,"ECCENTRICITY":0.00017855,"INCLINATION":53.0059,"RA_OF_ASC_NODE":89.6526,"ARG_OF_PERICENTER":116.542,"MEAN_ANOMALY":243.5742,"EPHEMERIS_TYPE":0,"NORAD_CAT_ID":57693,"ELEMENT_SET_NO":999,"REV_AT_EPOCH":15538,"BSTAR":0.00035355223,"MEAN_MOTION_DOT":0.00002793,"MEAN_MOTION_DDOT":0},{"OBJECT_NAME":"CAPELLA-14 (ACADIA-4)","OBJECT_ID":"2024-066C","EPOCH":"2026-07-08T06:47:45.121632","CLASSIFICATION_TYPE":"U","MEAN_MOTION":15.09670244,"ECCENTRICITY":0.00017941,"INCLINATION":45.6018,"RA_OF_ASC_NODE":144.1293,"ARG_OF_PERICENTER":172.831,"MEAN_ANOMALY":187.2601,"EPHEMERIS_TYPE":0,"NORAD_CAT_ID":59444,"ELEMENT_SET_NO":999,"REV_AT_EPOCH":11567,"BSTAR":0.00047360884,"MEAN_MOTION_DOT":0.000075,"MEAN_MOTION_DDOT":0},{"OBJECT_NAME":"CAPELLA-13 (ACADIA-3)","OBJECT_ID":"2024-142A","EPOCH":"2026-07-08T20:47:19.998816","CLASSIFICATION_TYPE":"U","MEAN_MOTION":14.87666772,"ECCENTRICITY":0.00012323,"INCLINATION":53.0055,"RA_OF_ASC_NODE":322.9385,"ARG_OF_PERICENTER":90.0185,"MEAN_ANOMALY":270.0937,"EPHEMERIS_TYPE":0,"NORAD_CAT_ID":60419,"ELEMENT_SET_NO":999,"REV_AT_EPOCH":10363,"BSTAR":0.0003596222,"MEAN_MOTION_DOT":0.0000307,"MEAN_MOTION_DDOT":0},{"OBJECT_NAME":"CAPELLA-15 (ACADIA-5)","OBJECT_ID":"2024-149CE","EPOCH":"2026-07-08T18:40:01.354944","CLASSIFICATION_TYPE":"U","MEAN_MOTION":14.92382217,"ECCENTRICITY":0.00033866,"INCLINATION":97.6776,"RA_OF_ASC_NODE":262.1397,"ARG_OF_PERICENTER":8.7995,"MEAN_ANOMALY":351.3283,"EPHEMERIS_TYPE":0,"NORAD_CAT_ID":60544,"ELEMENT_SET_NO":999,"REV_AT_EPOCH":10307,"BSTAR":0.00020207209,"MEAN_MOTION_DOT":0.00002013,"MEAN_MOTION_DDOT":0},{"OBJECT_NAME":"CAPELLA-17 (ACADIA-7)","OBJECT_ID":"2025-135BH","EPOCH":"2026-07-08T20:58:09.055488","CLASSIFICATION_TYPE":"U","MEAN_MOTION":14.91577145,"ECCENTRICITY":0.00037409,"INCLINATION":97.77,"RA_OF_ASC_NODE":303.1751,"ARG_OF_PERICENTER":277.9877,"MEAN_ANOMALY":82.0917,"EPHEMERIS_TYPE":0,"NORAD_CAT_ID":64583,"ELEMENT_SET_NO":999,"REV_AT_EPOCH":5708,"BSTAR":0.00041998459,"MEAN_MOTION_DOT":0.00004158,"MEAN_MOTION_DDOT":0},{"OBJECT_NAME":"CAPELLA-16 (ACADIA-6)","OBJECT_ID":"2025-188D","EPOCH":"2026-07-08T22:12:46.641312","CLASSIFICATION_TYPE":"U","MEAN_MOTION":14.94003832,"ECCENTRICITY":0.00052003,"INCLINATION":97.7375,"RA_OF_ASC_NODE":264.7514,"ARG_OF_PERICENTER":152.8898,"MEAN_ANOMALY":207.2595,"EPHEMERIS_TYPE":0,"NORAD_CAT_ID":65318,"ELEMENT_SET_NO":999,"REV_AT_EPOCH":4716,"BSTAR":0.0003158809,"MEAN_MOTION_DOT":0.00003312,"MEAN_MOTION_DDOT":0},{"OBJECT_NAME":"CAPELLA-19 (ACADIA-9)","OBJECT_ID":"2026-004X","EPOCH":"2026-07-08T22:32:14.182656","CLASSIFICATION_TYPE":"U","MEAN_MOTION":14.86647536,"ECCENTRICITY":0.00015138,"INCLINATION":97.8006,"RA_OF_ASC_NODE":187.9199,"ARG_OF_PERICENTER":95.8496,"MEAN_ANOMALY":264.2892,"EPHEMERIS_TYPE":0,"NORAD_CAT_ID":67384,"ELEMENT_SET_NO":999,"REV_AT_EPOCH":2650,"BSTAR":0.00040349272,"MEAN_MOTION_DOT":0.00003529,"MEAN_MOTION_DDOT":0},{"OBJECT_NAME":"CAPELLA-18 (ACADIA-8)","OBJECT_ID":"2026-004Y","EPOCH":"2026-07-08T22:46:41.035584","CLASSIFICATION_TYPE":"U","MEAN_MOTION":14.86647213,"ECCENTRICITY":0.00013267,"INCLINATION":97.8019,"RA_OF_ASC_NODE":188.0825,"ARG_OF_PERICENTER":84.8607,"MEAN_ANOMALY":275.276,"EPHEMERIS_TYPE":0,"NORAD_CAT_ID":67385,"ELEMENT_SET_NO":999,"REV_AT_EPOCH":2651,"BSTAR":0.00010861269,"MEAN_MOTION_DOT":0.00000911,"MEAN_MOTION_DDOT":0},{"OBJECT_NAME":"CAPELLA-20 (ACADIA-10)","OBJECT_ID":"2026-067BX","EPOCH":"2026-07-08T21:25:53.562720","CLASSIFICATION_TYPE":"U","MEAN_MOTION":14.91798857,"ECCENTRICITY":0.00011903,"INCLINATION":97.7579,"RA_OF_ASC_NODE":147.8414,"ARG_OF_PERICENTER":153.185,"MEAN_ANOMALY":206.943,"EPHEMERIS_TYPE":0,"NORAD_CAT_ID":68485,"ELEMENT_SET_NO":999,"REV_AT_EPOCH":1496,"BSTAR":0.00043769089,"MEAN_MOTION_DOT":0.0000436,"MEAN_MOTION_DDOT":0}]}
